UNKNOWN                 
1 81599U          25341.13221887  .00000494  00000+0  98427-3 0  9998
2 81599  67.2962 293.0971 0244746  88.4615 292.4539 13.31430643584331
UNKNOWN                 
1 81605U          25335.43166057  .00003675  00000+0  15285-1 0  9992
2 81605  56.4308 245.6098 0170748 116.8184 245.0316 12.81423325184755
UNKNOWN                 
1 81614U          25340.53795765  .00016024  00000+0  10224+0 0  9991
2 81614 101.8170 336.5766 0341093 162.2756 199.0551 12.37043645537218
UNKNOWN                 
1 81615U          25340.96250229  .00004862  00000+0  17222-2 0  9995
2 81615  65.8288  75.5926 0772364 139.3464 226.7958 13.34047143582096
UNKNOWN                 
1 81617U          25341.45857436  .00000510  00000+0  32788-2 0  9995
2 81617 101.2583 156.1389 0040640 250.5888 109.0794 12.57529127552449
UNKNOWN                 
1 81624U          25337.32371299  .00006803  00000+0  10842-2 0  9990
2 81624  66.9758 192.9399 0072685 243.5719 115.7931 14.70764318638325
UNKNOWN                 
1 81640U          25341.44924997  .00000532  00000+0  54681-3 0  9998
2 81640  65.8239 142.7200 0975826  79.8899 291.0599 12.57219658509417
UNKNOWN                 
1 81652U          25328.16440008  .00000932  00000+0  11344-2 0  9993
2 81652 102.1484 212.7977 0368298  41.0396 107.7003 13.44328436576158
UNKNOWN                 
1 81667U          25334.91320692  .00003500  00000+0  95024-3 0  9997
2 81667  74.0413  58.6889 0016294 349.7433  10.3391 14.47877341454936
UNKNOWN                 
1 81674U          25339.55763041  .00002214  00000+0  12952-2 0  9998
2 81674  66.8247  22.3569 0032204 235.2837 273.3754 14.09892686612709
UNKNOWN                 
1 81683U          25340.63675188  .00008070  00000+0  17729-2 0  9996
2 81683  81.2163 301.8104 0023359 320.9245  39.0263 14.57312006634974
UNKNOWN                 
1 81693U          25340.90922121  .00000121  00000+0  11197-2 0  9991
2 81693 101.0892  42.9830 0374082  96.4244 267.9544 12.25915070967055
