CCSDS_OMM_VERS = 2.0
CREATION_DATE  = 
ORIGINATOR     = 

OBJECT_NAME    = UNKNOWN
OBJECT_ID      = 
CENTER_NAME    = EARTH
REF_FRAME      = TEME
TIME_SYSTEM    = UTC
MEAN_ELEMENT_THEORY = SGP/SGP4

EPOCH          = 2025-12-07T03:10:23.710368
MEAN_MOTION    = 13.31430643
ECCENTRICITY   = .0244746
INCLINATION    = 67.2962
RA_OF_ASC_NODE = 293.0971
ARG_OF_PERICENTER = 88.4615
MEAN_ANOMALY   = 292.4539

EPHEMERIS_TYPE = 0
CLASSIFICATION_TYPE = U
NORAD_CAT_ID   = 81599
ELEMENT_SET_NO = 999
REV_AT_EPOCH   = 58433
BSTAR          = .98427E-3
MEAN_MOTION_DOT = .494E-5
MEAN_MOTION_DDOT = 0

CCSDS_OMM_VERS = 2.0
CREATION_DATE  = 
ORIGINATOR     = 

OBJECT_NAME    = UNKNOWN
OBJECT_ID      = 
CENTER_NAME    = EARTH
REF_FRAME      = TEME
TIME_SYSTEM    = UTC
MEAN_ELEMENT_THEORY = SGP/SGP4

EPOCH          = 2025-12-01T10:21:35.473248
MEAN_MOTION    = 12.81423325
ECCENTRICITY   = .0170748
INCLINATION    = 56.4308
RA_OF_ASC_NODE = 245.6098
ARG_OF_PERICENTER = 116.8184
MEAN_ANOMALY   = 245.0316

EPHEMERIS_TYPE = 0
CLASSIFICATION_TYPE = U
NORAD_CAT_ID   = 81605
ELEMENT_SET_NO = 999
REV_AT_EPOCH   = 18475
BSTAR          = .15285E-1
MEAN_MOTION_DOT = .3675E-4
MEAN_MOTION_DDOT = 0

CCSDS_OMM_VERS = 2.0
CREATION_DATE  = 
ORIGINATOR     = 

OBJECT_NAME    = UNKNOWN
OBJECT_ID      = 
CENTER_NAME    = EARTH
REF_FRAME      = TEME
TIME_SYSTEM    = UTC
MEAN_ELEMENT_THEORY = SGP/SGP4

EPOCH          = 2025-12-06T12:54:39.540960
MEAN_MOTION    = 12.37043645
ECCENTRICITY   = .0341093
INCLINATION    = 101.8170
RA_OF_ASC_NODE = 336.5766
ARG_OF_PERICENTER = 162.2756
MEAN_ANOMALY   = 199.0551

EPHEMERIS_TYPE = 0
CLASSIFICATION_TYPE = U
NORAD_CAT_ID   = 81614
ELEMENT_SET_NO = 999
REV_AT_EPOCH   = 53721
BSTAR          = .10224E+0
MEAN_MOTION_DOT = .16024E-3
MEAN_MOTION_DDOT = 0

CCSDS_OMM_VERS = 2.0
CREATION_DATE  = 
ORIGINATOR     = 

OBJECT_NAME    = UNKNOWN
OBJECT_ID      = 
CENTER_NAME    = EARTH
REF_FRAME      = TEME
TIME_SYSTEM    = UTC
MEAN_ELEMENT_THEORY = SGP/SGP4

EPOCH          = 2025-12-06T23:06:00.197856
MEAN_MOTION    = 13.34047143
ECCENTRICITY   = .0772364
INCLINATION    = 65.8288
RA_OF_ASC_NODE = 75.5926
ARG_OF_PERICENTER = 139.3464
MEAN_ANOMALY   = 226.7958

EPHEMERIS_TYPE = 0
CLASSIFICATION_TYPE = U
NORAD_CAT_ID   = 81615
ELEMENT_SET_NO = 999
REV_AT_EPOCH   = 58209
BSTAR          = .17222E-2
MEAN_MOTION_DOT = .4862E-4
MEAN_MOTION_DDOT = 0

CCSDS_OMM_VERS = 2.0
CREATION_DATE  = 
ORIGINATOR     = 

OBJECT_NAME    = UNKNOWN
OBJECT_ID      = 
CENTER_NAME    = EARTH
REF_FRAME      = TEME
TIME_SYSTEM    = UTC
MEAN_ELEMENT_THEORY = SGP/SGP4

EPOCH          = 2025-12-07T11:00:20.824704
MEAN_MOTION    = 12.57529127
ECCENTRICITY   = .004064
INCLINATION    = 101.2583
RA_OF_ASC_NODE = 156.1389
ARG_OF_PERICENTER = 250.5888
MEAN_ANOMALY   = 109.0794

EPHEMERIS_TYPE = 0
CLASSIFICATION_TYPE = U
NORAD_CAT_ID   = 81617
ELEMENT_SET_NO = 999
REV_AT_EPOCH   = 55244
BSTAR          = .32788E-2
MEAN_MOTION_DOT = .51E-5
MEAN_MOTION_DDOT = 0

CCSDS_OMM_VERS = 2.0
CREATION_DATE  = 
ORIGINATOR     = 

OBJECT_NAME    = UNKNOWN
OBJECT_ID      = 
CENTER_NAME    = EARTH
REF_FRAME      = TEME
TIME_SYSTEM    = UTC
MEAN_ELEMENT_THEORY = SGP/SGP4

EPOCH          = 2025-12-03T07:46:08.802336
MEAN_MOTION    = 14.70764318
ECCENTRICITY   = .0072685
INCLINATION    = 66.9758
RA_OF_ASC_NODE = 192.9399
ARG_OF_PERICENTER = 243.5719
MEAN_ANOMALY   = 115.7931

EPHEMERIS_TYPE = 0
CLASSIFICATION_TYPE = U
NORAD_CAT_ID   = 81624
ELEMENT_SET_NO = 999
REV_AT_EPOCH   = 63832
BSTAR          = .10842E-2
MEAN_MOTION_DOT = .6803E-4
MEAN_MOTION_DDOT = 0

CCSDS_OMM_VERS = 2.0
CREATION_DATE  = 
ORIGINATOR     = 

OBJECT_NAME    = UNKNOWN
OBJECT_ID      = 
CENTER_NAME    = EARTH
REF_FRAME      = TEME
TIME_SYSTEM    = UTC
MEAN_ELEMENT_THEORY = SGP/SGP4

EPOCH          = 2025-12-07T10:46:55.197408
MEAN_MOTION    = 12.57219658
ECCENTRICITY   = .0975826
INCLINATION    = 65.8239
RA_OF_ASC_NODE = 142.7200
ARG_OF_PERICENTER = 79.8899
MEAN_ANOMALY   = 291.0599

EPHEMERIS_TYPE = 0
CLASSIFICATION_TYPE = U
NORAD_CAT_ID   = 81640
ELEMENT_SET_NO = 999
REV_AT_EPOCH   = 50941
BSTAR          = .54681E-3
MEAN_MOTION_DOT = .532E-5
MEAN_MOTION_DDOT = 0

CCSDS_OMM_VERS = 2.0
CREATION_DATE  = 
ORIGINATOR     = 

OBJECT_NAME    = UNKNOWN
OBJECT_ID      = 
CENTER_NAME    = EARTH
REF_FRAME      = TEME
TIME_SYSTEM    = UTC
MEAN_ELEMENT_THEORY = SGP/SGP4

EPOCH          = 2025-11-24T03:56:44.166912
MEAN_MOTION    = 13.44328436
ECCENTRICITY   = .0368298
INCLINATION    = 102.1484
RA_OF_ASC_NODE = 212.7977
ARG_OF_PERICENTER = 41.0396
MEAN_ANOMALY   = 107.7003

EPHEMERIS_TYPE = 0
CLASSIFICATION_TYPE = U
NORAD_CAT_ID   = 81652
ELEMENT_SET_NO = 999
REV_AT_EPOCH   = 57615
BSTAR          = .11344E-2
MEAN_MOTION_DOT = .932E-5
MEAN_MOTION_DDOT = 0

CCSDS_OMM_VERS = 2.0
CREATION_DATE  = 
ORIGINATOR     = 

OBJECT_NAME    = UNKNOWN
OBJECT_ID      = 
CENTER_NAME    = EARTH
REF_FRAME      = TEME
TIME_SYSTEM    = UTC
MEAN_ELEMENT_THEORY = SGP/SGP4

EPOCH          = 2025-11-30T21:55:01.077888
MEAN_MOTION    = 14.47877341
ECCENTRICITY   = .0016294
INCLINATION    = 74.0413
RA_OF_ASC_NODE = 58.6889
ARG_OF_PERICENTER = 349.7433
MEAN_ANOMALY   = 10.3391

EPHEMERIS_TYPE = 0
CLASSIFICATION_TYPE = U
NORAD_CAT_ID   = 81667
ELEMENT_SET_NO = 999
REV_AT_EPOCH   = 45493
BSTAR          = .95024E-3
MEAN_MOTION_DOT = .35E-4
MEAN_MOTION_DDOT = 0

CCSDS_OMM_VERS = 2.0
CREATION_DATE  = 
ORIGINATOR     = 

OBJECT_NAME    = UNKNOWN
OBJECT_ID      = 
CENTER_NAME    = EARTH
REF_FRAME      = TEME
TIME_SYSTEM    = UTC
MEAN_ELEMENT_THEORY = SGP/SGP4

EPOCH          = 2025-12-05T13:22:59.267424
MEAN_MOTION    = 14.09892686
ECCENTRICITY   = .0032204
INCLINATION    = 66.8247
RA_OF_ASC_NODE = 22.3569
ARG_OF_PERICENTER = 235.2837
MEAN_ANOMALY   = 273.3754

EPHEMERIS_TYPE = 0
CLASSIFICATION_TYPE = U
NORAD_CAT_ID   = 81674
ELEMENT_SET_NO = 999
REV_AT_EPOCH   = 61270
BSTAR          = .12952E-2
MEAN_MOTION_DOT = .2214E-4
MEAN_MOTION_DDOT = 0

CCSDS_OMM_VERS = 2.0
CREATION_DATE  = 
ORIGINATOR     = 

OBJECT_NAME    = UNKNOWN
OBJECT_ID      = 
CENTER_NAME    = EARTH
REF_FRAME      = TEME
TIME_SYSTEM    = UTC
MEAN_ELEMENT_THEORY = SGP/SGP4

EPOCH          = 2025-12-06T15:16:55.362432
MEAN_MOTION    = 14.57312006
ECCENTRICITY   = .0023359
INCLINATION    = 81.2163
RA_OF_ASC_NODE = 301.8104
ARG_OF_PERICENTER = 320.9245
MEAN_ANOMALY   = 39.0263

EPHEMERIS_TYPE = 0
CLASSIFICATION_TYPE = U
NORAD_CAT_ID   = 81683
ELEMENT_SET_NO = 999
REV_AT_EPOCH   = 63497
BSTAR          = .17729E-2
MEAN_MOTION_DOT = .807E-4
MEAN_MOTION_DDOT = 0

CCSDS_OMM_VERS = 2.0
CREATION_DATE  = 
ORIGINATOR     = 

OBJECT_NAME    = UNKNOWN
OBJECT_ID      = 
CENTER_NAME    = EARTH
REF_FRAME      = TEME
TIME_SYSTEM    = UTC
MEAN_ELEMENT_THEORY = SGP/SGP4

EPOCH          = 2025-12-06T21:49:16.712544
MEAN_MOTION    = 12.25915070
ECCENTRICITY   = .0374082
INCLINATION    = 101.0892
RA_OF_ASC_NODE = 42.9830
ARG_OF_PERICENTER = 96.4244
MEAN_ANOMALY   = 267.9544

EPHEMERIS_TYPE = 0
CLASSIFICATION_TYPE = U
NORAD_CAT_ID   = 81693
ELEMENT_SET_NO = 999
REV_AT_EPOCH   = 96705
BSTAR          = .11197E-2
MEAN_MOTION_DOT = .121E-5
MEAN_MOTION_DDOT = 0

